start=new Date('2022-09-22T00:00:00.000Z').valueOf();
sats=[{"OBJECT_TYPE":"PAYLOAD","RCS_SIZE":"LARGE","ELEMENT_SET_NO":"999","SITE":"AFETR","TIME_SYSTEM":"UTC","TLE_LINE2":"2 45361  53.0561  64.8339 0001394  87.2154 272.8995 15.06395482139365","OBJECT_ID":"2020-019B","GP_ID":"213189017","BSTAR":"0.00024028000000","ARG_OF_PERICENTER":"87.2154","DECAY_DATE":null,"CLASSIFICATION_TYPE":"U","OBJECT_NAME":"STARLINK-1301","PERIAPSIS":"546.262","PERIOD":"95.592","EPOCH":"2022-09-21T19:45:31.042944","LAUNCH_DATE":"2020-03-18","SEMIMAJOR_AXIS":"6925.362","MEAN_ANOMALY":"272.8995","MEAN_ELEMENT_THEORY":"SGP4","INCLINATION":"53.0561","COUNTRY_CODE":"US","RA_OF_ASC_NODE":"64.8339","CENTER_NAME":"EARTH","MEAN_MOTION_DOT":"0.00003299","FILE":"3579752","MEAN_MOTION":"15.06395482","NORAD_CAT_ID":"45361","REF_FRAME":"TEME","EPHEMERIS_TYPE":"0","ECCENTRICITY":"0.00013940","REV_AT_EPOCH":"13936","TLE_LINE1":"1 45361U 20019B   22264.82327596  .00003299  00000-0  24028-3 0  9991","MEAN_MOTION_DDOT":"0.0000000000000","APOAPSIS":"548.193"},{"MEAN_MOTION_DDOT":"0.0000000000000","ECCENTRICITY":"0.00012650","REV_AT_EPOCH":"13904","TLE_LINE1":"1 45362U 20019C   22264.60398360 -.00000869  00000-0 -39470-4 0  9995","APOAPSIS":"548.140","MEAN_MOTION":"15.06383578","FILE":"3579752","NORAD_CAT_ID":"45362","RA_OF_ASC_NODE":"85.8153","CENTER_NAME":"EARTH","MEAN_MOTION_DOT":"-0.00000869","EPHEMERIS_TYPE":"0","REF_FRAME":"TEME","LAUNCH_DATE":"2020-03-18","PERIOD":"95.593","EPOCH":"2022-09-21T14:29:44.183040","INCLINATION":"53.0561","COUNTRY_CODE":"US","SEMIMAJOR_AXIS":"6925.399","MEAN_ELEMENT_THEORY":"SGP4","MEAN_ANOMALY":"273.4650","PERIAPSIS":"546.388","BSTAR":"-0.00003947000000","ARG_OF_PERICENTER":"86.6483","OBJECT_ID":"2020-019C","GP_ID":"213187773","OBJECT_NAME":"STARLINK-1306","DECAY_DATE":null,"CLASSIFICATION_TYPE":"U","ELEMENT_SET_NO":"999","TIME_SYSTEM":"UTC","SITE":"AFETR","TLE_LINE2":"2 45362  53.0561  85.8153 0001265  86.6483 273.4650 15.06383578139041","OBJECT_TYPE":"PAYLOAD","RCS_SIZE":"LARGE"},{"ARG_OF_PERICENTER":"72.6421","BSTAR":"0.00009876100000","GP_ID":"213187523","OBJECT_ID":"2020-019E","CLASSIFICATION_TYPE":"U","DECAY_DATE":null,"OBJECT_NAME":"STARLINK-1313","PERIAPSIS":"546.186","OBJECT_TYPE":"PAYLOAD","RCS_SIZE":"LARGE","TIME_SYSTEM":"UTC","SITE":"AFETR","ELEMENT_SET_NO":"999","TLE_LINE2":"2 45364  53.0546  54.7939 0001486  72.6421 287.4731 15.06399570139498","MEAN_MOTION_DDOT":"0.0000000000000","REV_AT_EPOCH":"13949","TLE_LINE1":"1 45364U 20019E   22264.83156616  .00001190  00000-0  98761-4 0  9992","ECCENTRICITY":"0.00014860","APOAPSIS":"548.244","LAUNCH_DATE":"2020-03-18","EPOCH":"2022-09-21T19:57:27.316224","PERIOD":"95.592","COUNTRY_CODE":"US","INCLINATION":"53.0546","SEMIMAJOR_AXIS":"6925.350","MEAN_ANOMALY":"287.4731","MEAN_ELEMENT_THEORY":"SGP4","MEAN_MOTION":"15.06399570","FILE":"3579752","NORAD_CAT_ID":"45364","CENTER_NAME":"EARTH","MEAN_MOTION_DOT":"0.00001190","RA_OF_ASC_NODE":"54.7939","EPHEMERIS_TYPE":"0","REF_FRAME":"TEME"},{"APOAPSIS":"549.785","REV_AT_EPOCH":"13930","TLE_LINE1":"1 45365U 20019F   22264.82219255  .00002862  00000-0  21409-3 0  9992","ECCENTRICITY":"0.00012060","MEAN_MOTION_DDOT":"0.0000000000000","REF_FRAME":"TEME","EPHEMERIS_TYPE":"0","MEAN_MOTION_DOT":"0.00002862","CENTER_NAME":"EARTH","RA_OF_ASC_NODE":"64.8231","MEAN_MOTION":"15.05833685","FILE":"3579752","NORAD_CAT_ID":"45365","SEMIMAJOR_AXIS":"6927.085","MEAN_ELEMENT_THEORY":"SGP4","MEAN_ANOMALY":"258.7707","COUNTRY_CODE":"US","INCLINATION":"52.9999","PERIOD":"95.628","EPOCH":"2022-09-21T19:43:57.436320","LAUNCH_DATE":"2020-03-18","PERIAPSIS":"548.114","DECAY_DATE":null,"OBJECT_NAME":"STARLINK-1317","CLASSIFICATION_TYPE":"U","GP_ID":"213188775","OBJECT_ID":"2020-019F","ARG_OF_PERICENTER":"101.3416","BSTAR":"0.00021409000000","TLE_LINE2":"2 45365  52.9999  64.8231 0001206 101.3416 258.7707 15.05833685139303","SITE":"AFETR","TIME_SYSTEM":"UTC","ELEMENT_SET_NO":"999","RCS_SIZE":"LARGE","OBJECT_TYPE":"PAYLOAD"},{"PERIAPSIS":"546.300","DECAY_DATE":null,"CLASSIFICATION_TYPE":"U","OBJECT_NAME":"STARLINK-1262","BSTAR":"-0.00037112000000","ARG_OF_PERICENTER":"64.6197","OBJECT_ID":"2020-019G","GP_ID":"213188517","TLE_LINE2":"2 45366  53.0538  85.2758 0001231  64.6197 295.4919 15.06419910139070","ELEMENT_SET_NO":"999","SITE":"AFETR","TIME_SYSTEM":"UTC","RCS_SIZE":"LARGE","OBJECT_TYPE":"PAYLOAD","APOAPSIS":"548.005","MEAN_MOTION_DDOT":"0.0000000000000","ECCENTRICITY":"0.00012310","REV_AT_EPOCH":"13907","TLE_LINE1":"1 45366U 20019G   22264.72191329 -.00005808  00000-0 -37112-3 0  9996","EPHEMERIS_TYPE":"0","REF_FRAME":"TEME","FILE":"3579752","NORAD_CAT_ID":"45366","MEAN_MOTION":"15.06419910","RA_OF_ASC_NODE":"85.2758","MEAN_MOTION_DOT":"-0.00005808","CENTER_NAME":"EARTH","INCLINATION":"53.0538","COUNTRY_CODE":"US","MEAN_ELEMENT_THEORY":"SGP4","SEMIMAJOR_AXIS":"6925.288","MEAN_ANOMALY":"295.4919","LAUNCH_DATE":"2020-03-18","PERIOD":"95.591","EPOCH":"2022-09-21T17:19:33.308256"},{"SITE":"AFETR","TIME_SYSTEM":"UTC","ELEMENT_SET_NO":"999","TLE_LINE2":"2 45367  53.0552  84.8729 0001366  84.0104 276.1041 15.06384908139084","OBJECT_TYPE":"PAYLOAD","RCS_SIZE":"LARGE","PERIAPSIS":"546.314","ARG_OF_PERICENTER":"84.0104","BSTAR":"-0.00000525690000","GP_ID":"213187274","OBJECT_ID":"2020-019H","DECAY_DATE":null,"OBJECT_NAME":"STARLINK-1273","CLASSIFICATION_TYPE":"U","NORAD_CAT_ID":"45367","FILE":"3579752","MEAN_MOTION":"15.06384908","MEAN_MOTION_DOT":"-0.00000360","CENTER_NAME":"EARTH","RA_OF_ASC_NODE":"84.8729","EPHEMERIS_TYPE":"0","REF_FRAME":"TEME","LAUNCH_DATE":"2020-03-18","EPOCH":"2022-09-21T19:26:57.191424","PERIOD":"95.593","COUNTRY_CODE":"US","INCLINATION":"53.0552","MEAN_ANOMALY":"276.1041","SEMIMAJOR_AXIS":"6925.395","MEAN_ELEMENT_THEORY":"SGP4","MEAN_MOTION_DDOT":"0.0000000000000","TLE_LINE1":"1 45367U 20019H   22264.81038416 -.00000360  00000-0 -52569-5 0  9997","REV_AT_EPOCH":"13908","ECCENTRICITY":"0.00013660","APOAPSIS":"548.206"},{"APOAPSIS":"548.079","TLE_LINE1":"1 45368U 20019J   22264.84722770 -.00000364  00000-0 -55503-5 0  9999","REV_AT_EPOCH":"13909","ECCENTRICITY":"0.00012510","MEAN_MOTION_DDOT":"0.0000000000000","REF_FRAME":"TEME","EPHEMERIS_TYPE":"0","MEAN_MOTION_DOT":"-0.00000364","CENTER_NAME":"EARTH","RA_OF_ASC_NODE":"84.7246","FILE":"3579752","NORAD_CAT_ID":"45368","MEAN_MOTION":"15.06400175","SEMIMAJOR_AXIS":"6925.348","MEAN_ELEMENT_THEORY":"SGP4","MEAN_ANOMALY":"274.1903","COUNTRY_CODE":"US","INCLINATION":"53.0550","EPOCH":"2022-09-21T20:20:00.473280","PERIOD":"95.592","LAUNCH_DATE":"2020-03-18","PERIAPSIS":"546.347","DECAY_DATE":null,"CLASSIFICATION_TYPE":"U","OBJECT_NAME":"STARLINK-1276","GP_ID":"213188024","OBJECT_ID":"2020-019J","ARG_OF_PERICENTER":"85.9229","BSTAR":"-0.00000555030000","TLE_LINE2":"2 45368  53.0550  84.7246 0001251  85.9229 274.1903 15.06400175139098","SITE":"AFETR","TIME_SYSTEM":"UTC","ELEMENT_SET_NO":"999","RCS_SIZE":"LARGE","OBJECT_TYPE":"PAYLOAD"},{"PERIAPSIS":"546.318","GP_ID":"213188275","OBJECT_ID":"2020-019K","ARG_OF_PERICENTER":"78.2446","BSTAR":"0.00009290500000","OBJECT_NAME":"STARLINK-1277","DECAY_DATE":null,"CLASSIFICATION_TYPE":"U","TIME_SYSTEM":"UTC","SITE":"AFETR","ELEMENT_SET_NO":"999","TLE_LINE2":"2 45369  53.0552  84.7116 0001265  78.2446 281.8685 15.06406202139097","OBJECT_TYPE":"PAYLOAD","RCS_SIZE":"LARGE","REV_AT_EPOCH":"13909","TLE_LINE1":"1 45369U 20019K   22264.84628957  .00001103  00000-0  92905-4 0  9998","ECCENTRICITY":"0.00012650","MEAN_MOTION_DDOT":"0.0000000000000","APOAPSIS":"548.071","CENTER_NAME":"EARTH","MEAN_MOTION_DOT":"0.00001103","RA_OF_ASC_NODE":"84.7116","NORAD_CAT_ID":"45369","FILE":"3579752","MEAN_MOTION":"15.06406202","REF_FRAME":"TEME","EPHEMERIS_TYPE":"0","EPOCH":"2022-09-21T20:18:39.418848","PERIOD":"95.592","LAUNCH_DATE":"2020-03-18","MEAN_ANOMALY":"281.8685","SEMIMAJOR_AXIS":"6925.330","MEAN_ELEMENT_THEORY":"SGP4","COUNTRY_CODE":"US","INCLINATION":"53.0552"},{"PERIAPSIS":"546.213","BSTAR":"0.00011760000000","ARG_OF_PERICENTER":"75.4908","OBJECT_ID":"2020-019L","GP_ID":"213189018","DECAY_DATE":null,"CLASSIFICATION_TYPE":"U","OBJECT_NAME":"STARLINK-1281","ELEMENT_SET_NO":"999","TIME_SYSTEM":"UTC","SITE":"AFETR","TLE_LINE2":"2 45370  53.0551  84.7761 0001415  75.4908 284.6238 15.06406578139094","OBJECT_TYPE":"PAYLOAD","RCS_SIZE":"LARGE","MEAN_MOTION_DDOT":"0.0000000000000","ECCENTRICITY":"0.00014150","TLE_LINE1":"1 45370U 20019L   22264.83617005  .00001471  00000-0  11760-3 0  9998","REV_AT_EPOCH":"13909","APOAPSIS":"548.173","FILE":"3579752","MEAN_MOTION":"15.06406578","NORAD_CAT_ID":"45370","RA_OF_ASC_NODE":"84.7761","CENTER_NAME":"EARTH","MEAN_MOTION_DOT":"0.00001471","EPHEMERIS_TYPE":"0","REF_FRAME":"TEME","LAUNCH_DATE":"2020-03-18","EPOCH":"2022-09-21T20:04:05.092320","PERIOD":"95.592","INCLINATION":"53.0551","COUNTRY_CODE":"US","MEAN_ANOMALY":"284.6238","SEMIMAJOR_AXIS":"6925.328","MEAN_ELEMENT_THEORY":"SGP4"},{"NORAD_CAT_ID":"45371","FILE":"3579752","MEAN_MOTION":"15.06408853","RA_OF_ASC_NODE":"88.8058","MEAN_MOTION_DOT":"0.00001913","CENTER_NAME":"EARTH","EPHEMERIS_TYPE":"0","REF_FRAME":"TEME","LAUNCH_DATE":"2020-03-18","EPOCH":"2022-09-20T22:27:38.469024","PERIOD":"95.592","INCLINATION":"53.0537","COUNTRY_CODE":"US","MEAN_ANOMALY":"279.1342","SEMIMAJOR_AXIS":"6925.321","MEAN_ELEMENT_THEORY":"SGP4","MEAN_MOTION_DDOT":"0.0000000000000","ECCENTRICITY":"0.00013440","REV_AT_EPOCH":"13895","TLE_LINE1":"1 45371U 20019M   22263.93586191  .00001913  00000-0  14727-3 0  9997","APOAPSIS":"548.117","ELEMENT_SET_NO":"999","TIME_SYSTEM":"UTC","SITE":"AFETR","TLE_LINE2":"2 45371  53.0537  88.8058 0001344  80.9799 279.1342 15.06408853138950","OBJECT_TYPE":"PAYLOAD","RCS_SIZE":"LARGE","PERIAPSIS":"546.256","BSTAR":"0.00014727000000","ARG_OF_PERICENTER":"80.9799","OBJECT_ID":"2020-019M","GP_ID":"213187774","DECAY_DATE":null,"OBJECT_NAME":"STARLINK-1287","CLASSIFICATION_TYPE":"U"}];
